MAKERSAT 0              
1 43016U 17073D   18296.75095382  .00000467  00000-0  42406-4 0  9994
2 43016  97.7111 222.5694 0257908 212.7399 145.7603 14.78357683 50133
ASTERIA                 
1 43020U 98067NH  18297.61726333  .00013639  00000-0  15705-3 0  9990
2 43020  51.6414  82.8040 0002153 302.0568  58.0217 15.62300646 52709
DELLINGR (RBLE)         
1 43021U 98067NJ  18297.60492840  .00008513  00000-0  11240-3 0  9998
2 43021  51.6388  86.4203 0001950 287.8583  72.2197 15.59282921 52652
OSIRIS-3U               
1 43027U 98067NL  18297.51208777  .00061484  00000-0  43108-3 0  9992
2 43027  51.6356  72.2123 0003985 290.0804  69.9766 15.73594548 52718
AEROCUBE 7B             
1 43042U 17071F   18297.58066399  .00002849  00000-0  81069-4 0  9993
2 43042  51.6375 130.7940 0004952  23.2437 336.8771 15.39654179 49533
AEROCUBE 7C             
1 43043U 17071G   18297.58057121  .00002955  00000-0  83693-4 0  9990
2 43043  51.6378 130.8012 0005084  24.6128 335.5099 15.39659292 49504
CHEFSAT                 
1 43044U 17071H   18297.55874040  .00005934  00000-0  15074-3 0  9992
2 43044  51.6377 129.2024 0004895  24.3990 335.7226 15.41089157 49528
ASGARDIA 1              
1 43049U 17071N   18297.61588599  .00003414  00000-0  94778-4 0  9995
2 43049  51.6380 130.2983 0002854  49.5012 310.6221 15.39773840 49512
ISARA                   
1 43050U 17071P   18297.57790440  .00004717  00000-0  12291-3 0  9998
2 43050  51.6373 129.3153 0002628  48.5734 311.5476 15.40819104 49522
FAUNA                   
1 43052U 17071R   18297.59145499  .00003206  00000-0  89107-4 0  9993
2 43052  51.6379 130.1478 0002751  46.1858 313.9353 15.39952314 49505
CORVUS BC3              
1 43118U 18004H   18297.16976470  .00000799  00000-0  37608-4 0  9990
2 43118  97.5192 359.9256 0010799  12.8865 347.2645 15.22458561 43330
MICROMAS-2A             
1 43131U 18004W   18297.59898888  .00001831  00000-0  80268-4 0  9996
2 43131  97.5205   0.6103 0009902  14.9533 345.1994 15.23256325 43418
GOMX4-B                 
1 43196U 18015E   18297.58262668  .00000402  00000-0  19592-4 0  9994
2 43196  97.3636  63.9995 0020593  64.4580 295.8782 15.23731414 40237
GOMX4-A                 
1 43197U 18015F   18297.61344907  .00000432  00000-0  20763-4 0  9991
2 43197  97.3631  64.0312 0020840  64.6894 129.5227 15.23803040 40246
1KUNS-PF                
1 43466U 98067NP  18296.54431281  .00014153  00000-0  18767-3 0  9993
2 43466  51.6385  95.8271 0000519 215.1347 144.9612 15.58538213 25693
UBAKUSAT                
1 43467U 98067NQ  18297.41198538  .00009799  00000-0  13611-3 0  9999
2 43467  51.6384  91.8748 0002445 247.1462 112.9272 15.57711586 25839
BATSU-CS1 (IRAZU)       
1 43468U 98067NR  18296.83203993  .00017401  00000-0  22343-3 0  9998
2 43468  51.6383  93.9994 0000558 205.5281 154.5684 15.59212833125737
CUBERRT                 
1 43546U 98067NU  18297.42724262  .00008596  00000-0  12511-3 0  9999
2 43546  51.6386  93.4661 0005539 319.0503  41.0072 15.56622490 15948
TEMPEST-D               
1 43547U 98067NV  18297.45262203  .00004765  00000-0  75204-4 0  9998
2 43547  51.6386  93.6337 0005520 322.2560  37.8043 15.55578175 15625
RAINCUBE                
1 43548U 98067NW  18297.44038086  .00010221  00000-0  14968-3 0  9991
2 43548  51.6383  93.5524 0005509 328.4081  31.6579 15.56208970 16073
HALOSAT                 
1 43549U 98067NX  18296.86287901  .00008660  00000-0  12803-3 0  9999
2 43549  51.6383  96.4461 0005473 328.9310  31.1358 15.56182440 15540
ENDUROSAT ONE           
1 43551U 98067NZ  18296.51764541  .00011927  00000-0  17033-3 0  9994
2 43551  51.6377  97.8898 0005951 333.0180  27.0501 15.56704699 15908
EQUISAT                 
1 43552U 98067PA  18296.52372818  .00010581  00000-0  15323-3 0  9993
2 43552  51.6380  97.9321 0006202 334.0232  26.0448 15.56466365 15863
AEROCUBE 12A            
1 43556U 18046C   18297.55233531  .00001548  00000-0  68745-4 0  9998
2 43556  51.6426 113.5073 0008007 305.1033  54.9195 15.27945990 15290
AEROCUBE 12B            
1 43557U 18046D   18296.96452696  .00001515  00000-0  67631-4 0  9995
2 43557  51.6425 116.3328 0008019 302.7703  57.2503 15.27907563 15152
UITMSAT-1               
1 43589U 98067PD  18297.59060300  .00011782  00000-0  17221-3 0  9994
2 43589  51.6380  93.0534 0005640 347.3480  12.7369 15.56086838 11765
MAYA-1                  
1 43590U 98067PE  18296.49749998  .00010364  00000-0  15234-3 0  9998
2 43590  51.6377  98.5037 0005663 344.4145  15.6671 15.56088599 11520
BHUTAN-1                
1 43591U 98067PF  18297.39474277  .00011760  00000-0  17150-3 0  9994
2 43591  51.6380  93.9960 0005832 349.1615  10.9250 15.56150484 11660
SIRIUSSAT-1             
1 43595U 98067PG  18297.54508330  .00010683  00000-0  15912-3 0  9990
2 43595  51.6382  93.4955 0003338 296.4224  63.6425 15.55692509 10862
SIRIUSSAT-2             
1 43596U 98067PH  18297.55137329  .00010612  00000-0  15897-3 0  9992
2 43596  51.6390  93.5444 0003981 300.0832  59.9764 15.55543000 10862
TANUSHA-3               
1 43597U 98067PJ  18297.61050750  .00013138  00000-0  19326-3 0  9999
2 43597  51.6371  93.1762 0003441 313.3467  46.7238 15.55801191 10872
SURFSAT                 
1 43614U 18070B   18297.60235972  .00002413  00000-0  67920-4 0  9993
2 43614  93.0284 265.6603 0018378 131.2386 229.0453 15.36378055  5996
CP-7 (DAVE)             
1 43615U 18070C   18297.60213658  .00002329  00000-0  65556-4 0  9990
2 43615  93.0278 265.6616 0018391 130.8569 229.4275 15.36382672  5993
ELFIN-B                 
1 43616U 18070D   18297.33989071 -.00000006  00000-0  00000-0 0  9990
2 43616  93.0230 265.5293 0019589 135.5293 224.7666 15.36463275  5955
ELFIN-A                 
1 43617U 18070E   18297.33920993 -.00000006  00000-0  00000-0 0  9999
2 43617  93.0296 265.5664 0018338 132.0392 228.2523 15.36500932  5956
